NORAD_CAT_ID,OBJECT_NAME,OBJECT_TYPE,EPOCH,MEAN_MOTION,ECCENTRICITY,INCLINATION,RA_OF_ASC_NODE,ARG_OF_PERICENTER,MEAN_ANOMALY,BSTAR,MEAN_MOTION_DOT,MEAN_MOTION_DDOT,TLE_LINE0,TLE_LINE1,TLE_LINE2,SEMIMAJOR_AXIS,PERIOD,APOGEE,PERIGEE,DECAYED
49741.0,STARLINK-3244,PAYLOAD,2022-01-11 22:00:00,15.4046775,0.0002436,53.2154,128.9321,22.815,340.8141,4.5911e-05,1.485e-05,0.0,0 STARLINK-3244,1 49741U 21115T   22011.91667824  .00001485  00000-0  45911-4 0  9996,2 49741  53.2154 128.9321 0002436  22.8150 340.8141 15.40467750  7429,6822.865,93.478,446.392,443.068,0.0
49741.0,STARLINK-3244,PAYLOAD,2022-01-12 14:00:01,15.40448632,0.0002551,53.2155,125.7912,25.3439,77.4822,0.00016631,6.438e-05,0.0,0 STARLINK-3244,1 49741U 21115T   22012.58334491  .00006438  00000-0  16631-3 0  9990,2 49741  53.2155 125.7912 0002551  25.3439  77.4822 15.40448632  3655,6822.920999999999,93.479,446.527,443.046,0.0
49741.0,STARLINK-3244,PAYLOAD,2022-01-12 22:00:00,15.40471327,0.0002563999999999,53.2153,124.2202,23.6061,128.7895,-0.00095793,-0.0003961,0.0,0 STARLINK-3244,1 49741U 21115T   22012.91667824 -.00039610  00000-0 -95793-3 0  9992,2 49741  53.2153 124.2202 0002564  23.6061 128.7895 15.40471327  7577,6822.854,93.478,446.469,442.97,0.0
49741.0,STARLINK-3244,PAYLOAD,2022-01-13 14:00:01,15.40450093,0.0002706,53.2154,121.0798,27.0494,224.5238,0.00053801,0.00021777,0.0,0 STARLINK-3244,1 49741U 21115T   22013.58334491  .00021777  00000-0  53801-3 0  9994,2 49741  53.2154 121.0798 0002706  27.0494 224.5238 15.40450093  7673,6822.917,93.479,446.628,442.936,0.0
49741.0,STARLINK-3244,PAYLOAD,2022-01-13 22:00:00,15.4050322,0.0002636,53.215,119.5088,25.3212,275.831,-0.0015193,-0.00062467,0.0,0 STARLINK-3244,1 49741U 21115T   22013.91667824 -.00062467  00000-0 -15193-2 0  9994,2 49741  53.2150 119.5088 0002636  25.3212 275.8310 15.40503220  3615,6822.76,93.476,446.424,442.827,0.0
49741.0,STARLINK-3244,PAYLOAD,2022-01-14 14:00:01,15.40453718,0.0002601,53.2152,116.3685,22.2898,18.0744,-5.1587e-05,-2.524e-05,0.0,0 STARLINK-3244,1 49741U 21115T   22014.58334491 -.00002524  00000-0 -51587-4 0  9996,2 49741  53.2152 116.3685 0002601  22.2898  18.0744 15.40453718  3640,6822.906,93.479,446.546,442.997,0.0
49741.0,STARLINK-3244,PAYLOAD,2022-01-14 22:00:00,15.40485359,0.0002559,53.2151,114.7972,20.0582,69.8798,-0.001202,-0.00049559,0.0,0 STARLINK-3244,1 49741U 21115T   22014.91667824 -.00049559  00000-0 -12020-2 0  9998,2 49741  53.2151 114.7972 0002559  20.0582  69.8798 15.40485359  3692,6822.813,93.477,446.424,442.932,0.0
49741.0,STARLINK-3244,PAYLOAD,2022-01-15 06:00:00,15.40471892,0.0002385,53.2154,113.2256,23.1088,116.4355,0.00013155,5.011e-05,0.0,0 STARLINK-3244,1 49741U 21115T   22015.25001157  .00005011  00000-0  13155-3 0  9991,2 49741  53.2154 113.2256 0002385  23.1088 116.4355 15.40471892  7932,6822.853,93.478,446.345,443.09,0.0
49741.0,STARLINK-3244,PAYLOAD,2022-01-15 14:00:01,15.40517726,0.000272,53.2155,111.6568,20.9829,168.2955,0.00054941,0.00022299,0.0,0 STARLINK-3244,1 49741U 21115T   22015.58335648  .00022299  00000-0  54941-3 0  9997,2 49741  53.2155 111.6568 0002720  20.9829 168.2955 15.40517726  7985,6822.717,93.475,446.43800000000016,442.726,0.0
49741.0,STARLINK-3244,PAYLOAD,2022-01-15 22:00:01,15.40564687,0.0002602,53.2156,110.0854,17.9067,221.039,-0.0010632,-0.00044029,0.0,0 STARLINK-3244,1 49741U 21115T   22015.91668981 -.00044029  00000-0 -10632-2 0  9998,2 49741  53.2156 110.0854 0002602  17.9067 221.0390 15.40564687  3655,6822.579000000002,93.472,446.219,442.668,0.0
49741.0,STARLINK-3244,PAYLOAD,2022-01-16 14:00:01,15.4051566,0.0002725,53.2161,106.945,15.6113,322.6406,-0.004481,-0.00180743,0.0,0 STARLINK-3244,1 49741U 21115T   22016.58334491 -.00180743  00000-0 -44810-2 0  9997,2 49741  53.2161 106.9450 0002725  15.6113 322.6406 15.40515660  8142,6822.723000000001,93.475,446.448,442.729,0.0
49741.0,STARLINK-3244,PAYLOAD,2022-01-16 22:00:00,15.40350746,0.0002626,53.2163,105.3736,13.5474,14.27,0.001177,0.00048129,0.0,0 STARLINK-3244,1 49741U 21115T   22016.91667824  .00048129  00000-0  11770-2 0  9991,2 49741  53.2163 105.3736 0002626  13.5474  14.2700 15.40350746  3644,6823.21,93.485,446.867,443.284,0.0
49741.0,STARLINK-3244,PAYLOAD,2022-01-17 06:00:00,15.40421926,0.0002557,53.2165,103.8023,17.631,59.6701,-0.00013929,-6.12e-05,0.0,0 STARLINK-3244,1 49741U 21115T   22017.25001157 -.00006120  00000-0 -13929-3 0  9996,2 49741  53.2165 103.8023 0002557  17.6310  59.6701 15.40421926  8249,6823.0,93.481,446.61,443.12,0.0
49741.0,STARLINK-3244,PAYLOAD,2022-01-17 14:00:01,15.40375641,0.0002814,53.2166,102.234,15.7201,111.1144,0.00091779,0.00037419,0.0,0 STARLINK-3244,1 49741U 21115T   22017.58334491  .00037419  00000-0  91779-3 0  9994,2 49741  53.2166 102.2340 0002814  15.7201 111.1144 15.40375641  8291,6823.137,93.484,446.922,443.082,0.0
49741.0,STARLINK-3244,PAYLOAD,2022-01-17 22:00:00,15.40410133,0.0002713,53.2165,100.6625,14.7127,161.5953,-0.00029903,-0.00012661,0.0,0 STARLINK-3244,1 49741U 21115T   22017.91667824 -.00012661  00000-0 -29903-3 0  9994,2 49741  53.2165 100.6625 0002713  14.7127 161.5953 15.40410133  3638,6823.035,93.482,446.751,443.049,0.0
49741.0,STARLINK-3244,PAYLOAD,2022-01-18 06:00:00,15.40414721,0.0002612,53.2166,99.0916,16.9211,208.8985,-0.00074529,-0.00030885,0.0,0 STARLINK-3244,1 49741U 21115T   22018.25001157 -.00030885  00000-0 -74529-3 0  9995,2 49741  53.2166  99.0916 0002612  16.9211 208.8985 15.40414721  8394,6823.021,93.481,446.669,443.104,0.0
49741.0,STARLINK-3244,PAYLOAD,2022-01-18 14:00:01,15.40366884,0.000296,53.2165,97.5231,16.212,259.1539,0.002996,0.00124445,0.0,0 STARLINK-3244,1 49741U 21115T   22018.58334491  .00124445  00000-0  29960-2 0  9993,2 49741  53.2165  97.5231 0002960  16.2120 259.1539 15.40366884  8440,6823.163000000001,93.484,447.047,443.008,0.0
49741.0,STARLINK-3244,PAYLOAD,2022-01-18 22:00:00,15.40470103,0.0002815,53.216,95.9513,15.9454,308.9577,0.00056202,0.00022785,0.0,0 STARLINK-3244,1 49741U 21115T   22018.91667824  .00022785  00000-0  56202-3 0  9993,2 49741  53.2160  95.9513 0002815  15.9454 308.9577 15.40470103  3636,6822.858,93.478,446.644,442.802,0.0
49741.0,STARLINK-3244,PAYLOAD,2022-01-19 06:00:02,15.4051788,0.0002714,53.216,94.3804,18.3886,356.1741,-8.2145e-05,-3.788e-05,0.0,0 STARLINK-3244,1 49741U 21115T   22019.25002315 -.00003788  00000-0 -82145-4 0  9999,2 49741  53.2160  94.3804 0002714  18.3886 356.1741 15.40517880  8554,6822.717,93.475,446.434,442.73,0.0
49741.0,STARLINK-3244,PAYLOAD,2022-01-19 14:00:01,15.40514059,0.0002918999999999,53.2156,92.8115,15.9421,48.2243,-0.00089332,-0.00037032,0.0,0 STARLINK-3244,1 49741U 21115T   22019.58334491 -.00037032  00000-0 -89332-3 0  9991,2 49741  53.2156  92.8115 0002919  15.9421  48.2243 15.40514059  3615,6822.728,93.475,446.585,442.602,0.0
49741.0,STARLINK-3244,PAYLOAD,2022-01-19 22:00:00,15.40472159,0.0002749,53.2152,91.2393,13.9268,99.8826,0.00095032,0.00038892,0.0,0 STARLINK-3244,1 49741U 21115T   22019.91667824  .00038892  00000-0  95032-3 0  9994,2 49741  53.2152  91.2393 0002749  13.9268  99.8826 15.40472159  3646,6822.852,93.478,446.592,442.841,0.0
49741.0,STARLINK-3244,PAYLOAD,2022-01-20 06:00:00,15.40506637,0.0002669,53.2154,89.6686,16.5835,146.80100000000004,-0.00047396,-0.00019875,0.0,0 STARLINK-3244,1 49741U 21115T   22020.25001157 -.00019875  00000-0 -47396-3 0  9996,2 49741  53.2154  89.6686 0002669  16.5835 146.8010 15.40506637  8703,6822.75,93.476,446.436,442.794,0.0
49741.0,STARLINK-3244,PAYLOAD,2022-01-20 14:00:01,15.40480374,0.0002931,53.2151,88.0995,15.7027,197.3101,-0.0025002,-0.00101942,0.0,0 STARLINK-3244,1 49741U 21115T   22020.58334491 -.00101942  00000-0 -25002-2 0  9998,2 49741  53.2151  88.0995 0002931  15.7027 197.3101 15.40480374  8758,6822.828,93.477,446.692,442.693,0.0
49741.0,STARLINK-3244,PAYLOAD,2022-01-20 22:00:00,15.40361391,0.0002847,53.215,86.5273,18.4601,244.1356,0.00075588,0.00030705,0.0,0 STARLINK-3244,1 49741U 21115T   22020.91667824  .00030705  00000-0  75588-3 0  9995,2 49741  53.2150  86.5273 0002847  18.4601 244.1356 15.40361391  3624,6823.179,93.485,446.986,443.101,0.0
49741.0,STARLINK-3244,PAYLOAD,2022-01-21 08:00:01,15.40426615,0.0002832,53.2152,84.5647,19.3786,35.0583,6.6279e-06,-1.32e-06,0.0,0 STARLINK-3244,1 49741U 21115T   22021.33334491 -.00000132  00000-0  66279-5 0  9994,2 49741  53.2152  84.5647 0002832  19.3786  35.0583 15.40426615  8879,6822.986,93.481,446.784,442.919,0.0
49741.0,STARLINK-3244,PAYLOAD,2022-01-21 14:00:01,15.404059699999998,0.0003035,53.2152,83.3879,19.0153,342.5867,0.0018326,0.00075575,0.0,0 STARLINK-3244,1 49741U 21115T   22021.58334491  .00075575  00000-0  18326-2 0  9990,2 49741  53.2152  83.3879 0003035  19.0153 342.5867 15.40405970  3657,6823.047,93.482,446.983,442.841,0.0
49741.0,STARLINK-3244,PAYLOAD,2022-01-21 22:00:00,15.40444017,0.0002855,53.2154,81.8156,20.0086,31.1431,0.00075876,0.00030909,0.0,0 STARLINK-3244,1 49741U 21115T   22021.91667824  .00030909  00000-0  75876-3 0  9992,2 49741  53.2154  81.8156 0002855  20.0086  31.1431 15.40444017  3648,6822.935,93.48,446.74800000000016,442.852,0.0
49741.0,STARLINK-3244,PAYLOAD,2022-01-22 06:00:00,15.405060199999998,0.0002884,53.2155,80.2449,21.6809,79.0502,-0.0010288,-0.00042545,0.0,0 STARLINK-3244,1 49741U 21115T   22022.25001157 -.00042545  00000-0 -10288-2 0  9997,2 49741  53.2155  80.2449 0002884  21.6809  79.0502 15.40506020  9019,6822.752,93.476,446.585,442.649,0.0
49741.0,STARLINK-3244,PAYLOAD,2022-01-22 14:00:01,15.40450921,0.0003111,53.2157,78.6758,18.986,131.3878,0.0020981,0.00086841,0.0,0 STARLINK-3244,1 49741U 21115T   22022.58334491  .00086841  00000-0  20981-2 0  9999,2 49741  53.2157  78.6758 0003111  18.9860 131.3878 15.40450921  3633,6822.915,93.479,446.902,442.657,0.0
